start=new Date('2022-01-17T00:00:00.000Z').valueOf();
sats=[{"EPOCH":"2022-01-16T15:55:04.191744","MEAN_MOTION_DDOT":"0.0000000000000","MEAN_MOTION_DOT":"0.00000440","REV_AT_EPOCH":"3755","NORAD_CAT_ID":"48558","CLASSIFICATION_TYPE":"U","ECCENTRICITY":"0.00013590","BSTAR":"0.00004841400000","OBJECT_ID":"2021-041F","SEMIMAJOR_AXIS":"6925.318","PERIOD":"95.592","MEAN_MOTION":"15.06409917","CENTER_NAME":"EARTH","GP_ID":"193993506","OBJECT_NAME":"STARLINK-2166","RA_OF_ASC_NODE":"83.8610","MEAN_ELEMENT_THEORY":"SGP4","LAUNCH_DATE":"2021-05-15","REF_FRAME":"TEME","RCS_SIZE":"LARGE","DECAY_DATE":null,"APOAPSIS":"548.124","TLE_LINE2":"2 48558  53.0550  83.8610 0001359  89.9954 270.1191 15.06409917 37551","INCLINATION":"53.0550","TLE_LINE1":"1 48558U 21041F   22016.66324296  .00000440  00000-0  48414-4 0  9990","OBJECT_TYPE":"PAYLOAD","MEAN_ANOMALY":"270.1191","COUNTRY_CODE":"US","EPHEMERIS_TYPE":"0","FILE":"3274941","SITE":"AFETR","ELEMENT_SET_NO":"999","PERIAPSIS":"546.242","TIME_SYSTEM":"UTC","ARG_OF_PERICENTER":"89.9954"},{"RA_OF_ASC_NODE":"82.7963","MEAN_ELEMENT_THEORY":"SGP4","REF_FRAME":"TEME","LAUNCH_DATE":"2021-05-15","RCS_SIZE":"LARGE","TLE_LINE2":"2 48559  53.0542  82.7963 0001275  80.8802 279.2332 15.06407128 37639","APOAPSIS":"548.075","DECAY_DATE":null,"MEAN_MOTION_DDOT":"0.0000000000000","MEAN_MOTION_DOT":"0.00000732","EPOCH":"2022-01-16T21:33:24.593184","REV_AT_EPOCH":"3763","NORAD_CAT_ID":"48559","BSTAR":"0.00006803600000","OBJECT_ID":"2021-041G","ECCENTRICITY":"0.00012750","PERIOD":"95.592","MEAN_MOTION":"15.06407128","SEMIMAJOR_AXIS":"6925.327","CLASSIFICATION_TYPE":"U","GP_ID":"193993508","OBJECT_NAME":"STARLINK-2167","CENTER_NAME":"EARTH","PERIAPSIS":"546.309","TIME_SYSTEM":"UTC","ELEMENT_SET_NO":"999","ARG_OF_PERICENTER":"80.8802","TLE_LINE1":"1 48559U 21041G   22016.89820131  .00000732  00000-0  68036-4 0  9991","INCLINATION":"53.0542","MEAN_ANOMALY":"279.2332","OBJECT_TYPE":"PAYLOAD","COUNTRY_CODE":"US","FILE":"3274941","SITE":"AFETR","EPHEMERIS_TYPE":"0"},{"REF_FRAME":"TEME","LAUNCH_DATE":"2021-05-15","RA_OF_ASC_NODE":"52.1256","MEAN_ELEMENT_THEORY":"SGP4","TLE_LINE2":"2 48560  53.0455  52.1256 0006652 276.4348  83.5920 15.91022712 38043","APOAPSIS":"303.864","DECAY_DATE":null,"RCS_SIZE":"LARGE","NORAD_CAT_ID":"48560","REV_AT_EPOCH":"3804","MEAN_MOTION_DDOT":"0.0000110600000","MEAN_MOTION_DOT":"-0.00006774","EPOCH":"2022-01-16T19:28:02.226432","GP_ID":"193993522","OBJECT_NAME":"STARLINK-2173","CENTER_NAME":"EARTH","BSTAR":"-0.00001011300000","ECCENTRICITY":"0.00066520","OBJECT_ID":"2021-041H","PERIOD":"90.508","SEMIMAJOR_AXIS":"6677.557","MEAN_MOTION":"15.91022712","CLASSIFICATION_TYPE":"U","TIME_SYSTEM":"UTC","PERIAPSIS":"294.980","ELEMENT_SET_NO":"999","ARG_OF_PERICENTER":"276.4348","TLE_LINE1":"1 48560U 21041H   22016.81113688 -.00006774  11060-4 -10113-4 0  9996","INCLINATION":"53.0455","SITE":"AFETR","FILE":"3274938","EPHEMERIS_TYPE":"0","OBJECT_TYPE":"PAYLOAD","MEAN_ANOMALY":"83.5920","COUNTRY_CODE":"US"},{"CLASSIFICATION_TYPE":"U","OBJECT_ID":"2021-041J","BSTAR":"0.00038924000000","ECCENTRICITY":"0.00012460","PERIOD":"95.592","SEMIMAJOR_AXIS":"6925.340","MEAN_MOTION":"15.06402824","CENTER_NAME":"EARTH","GP_ID":"193987914","OBJECT_NAME":"STARLINK-2186","EPOCH":"2022-01-16T14:00:01.000224","MEAN_MOTION_DDOT":"0.0000000000000","MEAN_MOTION_DOT":"0.00005521","REV_AT_EPOCH":"359","NORAD_CAT_ID":"48561","RCS_SIZE":"LARGE","DECAY_DATE":null,"TLE_LINE2":"2 48561  53.0547  54.2284 0001246  96.3600  60.3358 15.06402824  3596","APOAPSIS":"548.068","RA_OF_ASC_NODE":"54.2284","MEAN_ELEMENT_THEORY":"SGP4","LAUNCH_DATE":"2021-05-15","REF_FRAME":"TEME","MEAN_ANOMALY":"60.3358","OBJECT_TYPE":"PAYLOAD","COUNTRY_CODE":"US","FILE":"3274671","EPHEMERIS_TYPE":"0","SITE":"AFETR","INCLINATION":"53.0547","TLE_LINE1":"1 48561U 21041J   22016.58334491  .00005521  00000-0  38924-3 0  9992","ARG_OF_PERICENTER":"96.3600","ELEMENT_SET_NO":"999","PERIAPSIS":"546.342","TIME_SYSTEM":"UTC"},{"PERIOD":"95.592","SEMIMAJOR_AXIS":"6925.333","MEAN_MOTION":"15.06405103","BSTAR":"0.00005109900000","OBJECT_ID":"2021-041K","ECCENTRICITY":"0.00013310","CLASSIFICATION_TYPE":"U","OBJECT_NAME":"STARLINK-2187","GP_ID":"193993593","CENTER_NAME":"EARTH","MEAN_MOTION_DDOT":"0.0000000000000","MEAN_MOTION_DOT":"0.00000480","EPOCH":"2022-01-16T15:23:14.004384","REV_AT_EPOCH":"3755","NORAD_CAT_ID":"48562","RCS_SIZE":"LARGE","TLE_LINE2":"2 48562  53.0559  83.9664 0001331 104.0303 256.0834 15.06405103 37552","APOAPSIS":"548.120","DECAY_DATE":null,"MEAN_ELEMENT_THEORY":"SGP4","RA_OF_ASC_NODE":"83.9664","REF_FRAME":"TEME","LAUNCH_DATE":"2021-05-15","COUNTRY_CODE":"US","OBJECT_TYPE":"PAYLOAD","MEAN_ANOMALY":"256.0834","FILE":"3274944","SITE":"AFETR","EPHEMERIS_TYPE":"0","TLE_LINE1":"1 48562U 21041K   22016.64113431  .00000480  00000-0  51099-4 0  9997","INCLINATION":"53.0559","ARG_OF_PERICENTER":"104.0303","TIME_SYSTEM":"UTC","PERIAPSIS":"546.276","ELEMENT_SET_NO":"999"},{"CENTER_NAME":"EARTH","OBJECT_NAME":"STARLINK-2188","GP_ID":"193986415","CLASSIFICATION_TYPE":"U","SEMIMAJOR_AXIS":"6925.317","PERIOD":"95.591","MEAN_MOTION":"15.06410318","OBJECT_ID":"2021-041L","BSTAR":"0.00004924600000","ECCENTRICITY":"0.00013860","REV_AT_EPOCH":"3712","NORAD_CAT_ID":"48563","EPOCH":"2022-01-16T11:03:08.916768","MEAN_MOTION_DOT":"0.00000452","MEAN_MOTION_DDOT":"0.0000000000000","DECAY_DATE":null,"APOAPSIS":"548.142","TLE_LINE2":"2 48563  53.0553  84.7779 0001386  91.7788 268.3359 15.06410318 37127","RCS_SIZE":"LARGE","LAUNCH_DATE":"2021-05-15","REF_FRAME":"TEME","MEAN_ELEMENT_THEORY":"SGP4","RA_OF_ASC_NODE":"84.7779","SITE":"AFETR","FILE":"3274671","EPHEMERIS_TYPE":"0","COUNTRY_CODE":"US","OBJECT_TYPE":"PAYLOAD","MEAN_ANOMALY":"268.3359","INCLINATION":"53.0553","TLE_LINE1":"1 48563U 21041L   22016.46051987  .00000452  00000-0  49246-4 0  9995","ARG_OF_PERICENTER":"91.7788","ELEMENT_SET_NO":"999","PERIAPSIS":"546.222","TIME_SYSTEM":"UTC"},{"INCLINATION":"53.0562","TLE_LINE1":"1 48564U 21041M   22016.45314921  .00003986  00000-0  28620-3 0  9992","COUNTRY_CODE":"US","OBJECT_TYPE":"PAYLOAD","MEAN_ANOMALY":"276.7040","FILE":"3274671","EPHEMERIS_TYPE":"0","SITE":"AFETR","ELEMENT_SET_NO":"999","TIME_SYSTEM":"UTC","PERIAPSIS":"546.285","ARG_OF_PERICENTER":"83.4092","EPOCH":"2022-01-16T10:52:32.091744","MEAN_MOTION_DOT":"0.00003986","MEAN_MOTION_DDOT":"0.0000000000000","NORAD_CAT_ID":"48564","REV_AT_EPOCH":"3712","CLASSIFICATION_TYPE":"U","PERIOD":"95.591","SEMIMAJOR_AXIS":"6925.290","MEAN_MOTION":"15.06419175","BSTAR":"0.00028620000000","ECCENTRICITY":"0.00012560","OBJECT_ID":"2021-041M","CENTER_NAME":"EARTH","OBJECT_NAME":"STARLINK-2190","GP_ID":"193987666","MEAN_ELEMENT_THEORY":"SGP4","RA_OF_ASC_NODE":"84.8145","LAUNCH_DATE":"2021-05-15","REF_FRAME":"TEME","RCS_SIZE":"LARGE","DECAY_DATE":null,"APOAPSIS":"548.025","TLE_LINE2":"2 48564  53.0562  84.8145 0001256  83.4092 276.7040 15.06419175 37128"},{"APOAPSIS":"548.374","TLE_LINE2":"2 48565  53.0555  83.9387 0001720  69.2423 290.8750 15.06410086 37605","DECAY_DATE":null,"RCS_SIZE":"LARGE","REF_FRAME":"TEME","LAUNCH_DATE":"2021-05-15","MEAN_ELEMENT_THEORY":"SGP4","RA_OF_ASC_NODE":"83.9387","OBJECT_NAME":"STARLINK-2191","GP_ID":"193993628","CENTER_NAME":"EARTH","PERIOD":"95.592","SEMIMAJOR_AXIS":"6925.318","MEAN_MOTION":"15.06410086","ECCENTRICITY":"0.00017200","BSTAR":"0.00005285300000","OBJECT_ID":"2021-041N","CLASSIFICATION_TYPE":"U","REV_AT_EPOCH":"3760","NORAD_CAT_ID":"48565","MEAN_MOTION_DOT":"0.00000506","MEAN_MOTION_DDOT":"0.0000000000000","EPOCH":"2022-01-16T15:33:50.840640","ARG_OF_PERICENTER":"69.2423","TIME_SYSTEM":"UTC","PERIAPSIS":"545.991","ELEMENT_SET_NO":"999","SITE":"AFETR","FILE":"3274947","EPHEMERIS_TYPE":"0","COUNTRY_CODE":"US","OBJECT_TYPE":"PAYLOAD","MEAN_ANOMALY":"290.8750","TLE_LINE1":"1 48565U 21041N   22016.64850510  .00000506  00000-0  52853-4 0  9994","INCLINATION":"53.0555"},{"FILE":"3274671","EPHEMERIS_TYPE":"0","SITE":"AFETR","COUNTRY_CODE":"US","OBJECT_TYPE":"PAYLOAD","MEAN_ANOMALY":"272.6379","TLE_LINE1":"1 48566U 21041P   22016.47338969  .00001953  00000-0  14991-3 0  9992","INCLINATION":"53.0563","ARG_OF_PERICENTER":"87.4730","PERIAPSIS":"546.428","TIME_SYSTEM":"UTC","ELEMENT_SET_NO":"999","OBJECT_NAME":"STARLINK-2214","GP_ID":"193986665","CENTER_NAME":"EARTH","SEMIMAJOR_AXIS":"6925.289","PERIOD":"95.591","MEAN_MOTION":"15.06419463","BSTAR":"0.00014991000000","ECCENTRICITY":"0.00010480","OBJECT_ID":"2021-041P","CLASSIFICATION_TYPE":"U","REV_AT_EPOCH":"3698","NORAD_CAT_ID":"48566","MEAN_MOTION_DOT":"0.00001953","MEAN_MOTION_DDOT":"0.0000000000000","EPOCH":"2022-01-16T11:21:40.869216","TLE_LINE2":"2 48566  53.0563  94.7155 0001048  87.4730 272.6379 15.06419463 36987","APOAPSIS":"547.880","DECAY_DATE":null,"RCS_SIZE":"LARGE","REF_FRAME":"TEME","LAUNCH_DATE":"2021-05-15","MEAN_ELEMENT_THEORY":"SGP4","RA_OF_ASC_NODE":"94.7155"},{"TLE_LINE2":"2 48567  53.0556  94.6496 0001132  93.8211 266.2907 15.06406642 36987","APOAPSIS":"547.977","DECAY_DATE":null,"RCS_SIZE":"LARGE","REF_FRAME":"TEME","LAUNCH_DATE":"2021-05-15","MEAN_ELEMENT_THEORY":"SGP4","RA_OF_ASC_NODE":"94.6496","OBJECT_NAME":"STARLINK-2215","GP_ID":"193986915","CENTER_NAME":"EARTH","PERIOD":"95.592","SEMIMAJOR_AXIS":"6925.328","MEAN_MOTION":"15.06406642","BSTAR":"0.00010003000000","ECCENTRICITY":"0.00011320","OBJECT_ID":"2021-041Q","CLASSIFICATION_TYPE":"U","REV_AT_EPOCH":"3698","NORAD_CAT_ID":"48567","MEAN_MOTION_DOT":"0.00001209","MEAN_MOTION_DDOT":"0.0000000000000","EPOCH":"2022-01-16T11:38:58.801920","ARG_OF_PERICENTER":"93.8211","PERIAPSIS":"546.409","TIME_SYSTEM":"UTC","ELEMENT_SET_NO":"999","FILE":"3274671","EPHEMERIS_TYPE":"0","SITE":"AFETR","COUNTRY_CODE":"US","MEAN_ANOMALY":"266.2907","OBJECT_TYPE":"PAYLOAD","TLE_LINE1":"1 48567U 21041Q   22016.48540280  .00001209  00000-0  10003-3 0  9999","INCLINATION":"53.0556"}];
